38040,GLOBALSTAR M084,2011,114.08,700.0,+,52.0,Active,1,LEO,Kazakhstan,Globalstar,Commercial,Communications,Soyuz,1 38040U 11080A   24096.90685682 -.00000076  00000+0  15572-3 0  9996,2 38040  52.0008 299.7151 0000915 111.8676 357.1994 12.62273007567445,12.62273007,9.15e-05,LEO
38041,GLOBALSTAR M080,2011,114.08,700.0,+,52.01,Active,1,LEO,Kazakhstan,Globalstar,Commercial,Communications,Soyuz,1 38041U 11080B   24096.85921288 -.00000066  00000+0  20952-3 0  9993,2 38041  52.0059 301.3149 0001138 109.2676 262.1341 12.62270918567560,12.62270918,0.0001138,LEO
38042,GLOBALSTAR M082,2011,114.08,700.0,+,52.01,Active,1,LEO,Kazakhstan,Globalstar,Commercial,Communications,Soyuz,1 38042U 11080C   24097.22473848 -.00000106  00000+0 -10151-4 0  9997,2 38042  52.0066 255.6008 0000367  54.6823 118.4861 12.62267873568482,12.62267873,3.67e-05,LEO
38043,GLOBALSTAR M092,2011,114.08,700.0,+,52.01,Active,1,LEO,Kazakhstan,Globalstar,Commercial,Communications,Soyuz,1 38043U 11080D   24096.86063324 -.00000087  00000+0  92006-4 0  9997,2 38043  52.0108 347.0626 0000567 101.3414 336.8658 12.62277524566932,12.62277524,5.67e-05,LEO
38044,GLOBALSTAR M090,2011,114.08,700.0,+,51.99,Active,1,LEO,Kazakhstan,Globalstar,Commercial,Communications,Soyuz,1 38044U 11080E   24097.17149454 -.00000108  00000+0 -25423-4 0  9996,2 38044  51.9876 250.1326 0000564  87.5133  84.7575 12.62267984568460,12.62267984,5.64e-05,LEO
38045,GLOBALSTAR M086,2011,114.08,700.0,+,51.99,Active,1,LEO,Kazakhstan,Globalstar,Commercial,Communications,Soyuz,1 38045U 11080F   24097.19805596 -.00000101  00000+0  16210-4 0  9991,2 38045  51.9889 250.5695 0001611  86.1893  86.3240 12.62269265568472,12.62269265,0.0001611,LEO
39072,GLOBALSTAR M097,2013,114.08,700.0,+,52.0,Active,1,LEO,Kazakhstan,Globalstar,Commercial,Communications,Soyuz,1 39072U 13005A   24096.86995552 -.00000095  00000+0  46282-4 0  9990,2 39072  52.0033 165.6729 0000500  80.6965 279.3958 12.62262038515580,12.62262038,5e-05,LEO
39073,GLOBALSTAR M093,2013,114.08,700.0,+,51.98,Active,1,LEO,Kazakhstan,Globalstar,Commercial,Communications,Soyuz,1 39073U 13005B   24096.44743728 -.00000097  00000+0  39656-4 0  9990,2 39073  51.9796 160.9616 0000489  70.4794 289.6125 12.62262802515489,12.62262802,4.89e-05,LEO
